OBJECT_NAME,OBJECT_ID,EPOCH,MEAN_MOTION,ECCENTRICITY,INCLINATION,RA_OF_ASC_NODE,ARG_OF_PERICENTER,MEAN_ANOMALY,EPHEMERIS_TYPE,CLASSIFICATION_TYPE,NORAD_CAT_ID,ELEMENT_SET_NO,REV_AT_EPOCH,BSTAR,MEAN_MOTION_DOT,MEAN_MOTION_DDOT
CUBEBUG-2 (LO-74),2013-066AA,2026-06-18T19:18:56.098080,14.93773469,.0058293,97.8910,118.7896,23.8630,336.5272,0,U,39440,999,67723,.36475E-3,.3935E-4,0
FUNCUBE-1 (AO-73),2013-066AE,2026-06-18T15:32:22.593408,15.09504260,.0035755,97.8281,141.1237,195.6832,164.3291,0,U,39444,999,67988,.3018E-3,.484E-4,0
UWE-3,2013-066AG,2026-06-18T14:51:46.986048,14.97034048,.0047372,97.8699,125.7026,316.3669,43.3811,0,U,39446,999,67779,.31072E-3,.3597E-4,0
UNISAT-6,2014-033C,2026-06-18T09:51:28.369728,14.88251057,.00462,97.7883,322.1006,65.3888,295.2132,0,U,40012,999,64634,.21275E-3,.1947E-4,0
DUCHIFAT-1,2014-033M,2026-06-18T16:25:31.161216,15.64848252,.0002814,98.0447,229.0553,113.8680,246.2872,0,U,40021,999,65598,.89916E-3,.88318E-3,0
QB50P1,2014-033R,2026-06-18T14:24:00.294624,15.18277268,.0007983,98.0962,180.8450,209.9659,150.1117,0,U,40025,999,65324,.30544E-3,.6188E-4,0
LILACSAT-2,2015-049K,2026-06-18T21:13:57.696384,15.51490742,.0005622,97.4640,206.7910,236.9424,123.1288,0,U,40908,999,59601,.23796E-3,.13972E-3,0
FOX-1A (AO-85),2015-058D,2026-06-18T16:39:25.987392,14.90975407,.0130534,64.7758,274.3012,56.0068,305.3365,0,U,40967,999,11379,.17186E-3,.1823E-4,0
CAS-2T & KS-1Q,2016-066G,2026-06-18T18:20:40.710048,14.44698862,.0342837,98.3822,245.4827,124.7096,238.6899,0,U,41847,999,50502,.19556E-3,.1345E-4,0
RADFXSAT (FOX-1B),2017-073E,2026-06-17T14:31:00.659136,15.12722439,.0149538,97.4696,35.8108,327.7970,31.4193,0,U,43017,999,46545,.24962E-3,.5679E-4,0
DIWATA-2B,2018-084H,2026-06-18T20:05:22.566336,15.00459356,.0012604,98.1180,6.1167,164.7913,195.3691,0,U,43678,999,41646,.179E-3,.219E-4,0
ES'HAIL 2,2018-090A,2026-06-18T20:24:56.878848,1.00271603,.0001717,0.0147,33.9705,90.4827,114.6450,0,U,43700,999,2769,0,.138E-5,0
FOX-1CLIFF (AO-95),2018-099N,2026-06-18T17:11:22.272000,15.26738292,.00078,97.4376,229.9567,352.1170,7.9945,0,U,43770,999,41345,.35232E-3,.9199E-4,0
ITASAT,2018-099AE,2026-06-18T20:47:09.909888,15.19074209,.0011915,97.4023,221.3444,354.4403,5.6697,0,U,43786,999,41316,.23668E-3,.4904E-4,0
JY1SAT (JO-97),2018-099AX,2026-06-18T17:26:42.483840,15.33692611,.0004451,97.4126,232.5664,255.1384,104.9366,0,U,43803,999,41386,.40994E-3,.13287E-3,0
UWE-4,2018-111E,2026-06-18T18:26:26.240064,15.46206755,.000526,97.5851,98.2321,335.4333,24.6665,0,U,43880,999,41102,.55973E-3,.27476E-3,0
TIANYAN 01,2019-093C,2026-06-18T20:41:33.398304,14.86519282,.001507,97.7532,242.0535,81.7877,278.5047,0,U,44881,999,35166,.58455E-5,-.2E-7,0
RS-44 & BREEZE-KM R/B,2019-096E,2026-06-18T17:24:15.947712,12.79748853,.021823,82.5220,338.6827,140.5822,221.1390,0,U,44909,999,30254,-.19365E-4,.8E-7,0
SALSAT,2020-068K,2026-06-18T10:53:20.067072,15.29814902,.0007987,97.8850,172.5954,302.8690,57.1780,0,U,46495,999,31555,.21401E-3,.61E-4,0
XW-3 (CAS-9),2021-131B,2026-06-18T20:37:41.630304,14.41358642,.0005388,98.4986,262.2401,93.0611,267.1195,0,U,50466,999,23535,.12393E-3,.357E-5,0
GREENCUBE (IO-117),2022-080E,2026-06-18T10:18:19.245024,6.42583246,.0008904,70.1442,297.8130,289.4279,70.5418,0,U,53109,999,9214,0,-.3E-7,0
UMKA 1 (RS40S),2023-091G,2026-06-18T19:18:38.264256,15.20833066,.0014282,97.5046,228.4957,112.6040,247.6707,0,U,57172,999,16425,.20833E-3,.4538E-4,0
CUBESX-HSE 3 (RS42S),2023-091N,2026-06-18T19:22:53.825088,15.31248189,.0012005,97.5087,235.4152,89.9269,270.3348,0,U,57178,999,16467,.34606E-3,.10391E-3,0
MONITOR-3 (RS58S),2023-091Q,2026-06-18T20:03:18.812160,15.27868513,.0013086,97.5077,233.2937,95.7214,264.5518,0,U,57180,999,16454,.29927E-3,.8087E-4,0
MONITOR-4 (RS57S),2023-091S,2026-06-18T19:33:01.386432,15.27954436,.0013071,97.5073,233.2441,96.1686,264.1042,0,U,57182,999,16454,.31095E-3,.8428E-4,0
MONITOR-2 (RS39S),2023-091U,2026-06-18T19:52:10.015680,15.18923152,.0012768,97.5068,228.1003,106.1632,254.1008,0,U,57184,999,16420,.19275E-3,.3963E-4,0
SVYATOBOR 1 (RS60S),2023-091X,2026-06-18T19:53:53.422656,15.26637750,.0010842,97.5086,233.6552,89.6350,270.6130,0,U,57187,999,16456,.25933E-3,.6733E-4,0
VIZARD-METEO (RS38S),2023-091Z,2026-06-18T20:11:34.190880,15.36068617,.0008161,97.5088,239.3596,72.8457,287.3680,0,U,57189,999,16494,.35131E-3,.12276E-3,0
POLYTECH-UNIVERSE 3 (RS46S),2023-091AB,2026-06-18T20:31:01.454016,15.19125707,.0016941,97.5044,227.6317,121.4548,238.8345,0,U,57191,999,16420,.19683E-3,.4079E-4,0
UTMN 2 (RS27S),2023-091AP,2026-06-18T19:46:56.858016,15.32084540,.000917,97.5083,237.0682,78.8611,281.3661,0,U,57203,999,16479,.32374E-3,.9964E-4,0
