CUBEBUG-2 (LO-74)       
1 39440U 13066AA  26169.80481595  .00003935  00000+0  36475-3 0  9997
2 39440  97.8910 118.7896 0058293  23.8630 336.5272 14.93773469677231
FUNCUBE-1 (AO-73)       
1 39444U 13066AE  26169.64748372  .00004840  00000+0  30180-3 0  9995
2 39444  97.8281 141.1237 0035755 195.6832 164.3291 15.09504260679885
UWE-3                   
1 39446U 13066AG  26169.61929382  .00003597  00000+0  31072-3 0  9995
2 39446  97.8699 125.7026 0047372 316.3669  43.3811 14.97034048677792
UNISAT-6                
1 40012U 14033C   26169.41074502  .00001947  00000+0  21275-3 0  9995
2 40012  97.7883 322.1006 0046200  65.3888 295.2132 14.88251057646343
DUCHIFAT-1              
1 40021U 14033M   26169.68438844  .00088318  00000+0  89916-3 0  9990
2 40021  98.0447 229.0553 0002814 113.8680 246.2872 15.64848252655988
QB50P1                  
1 40025U 14033R   26169.60000341  .00006188  00000+0  30544-3 0  9991
2 40025  98.0962 180.8450 0007983 209.9659 150.1117 15.18277268653243
LILACSAT-2              
1 40908U 15049K   26169.88469556  .00013972  00000+0  23796-3 0  9996
2 40908  97.4640 206.7910 0005622 236.9424 123.1288 15.51490742596017
FOX-1A (AO-85)          
1 40967U 15058D   26169.69405078  .00001823  00000+0  17186-3 0  9997
2 40967  64.7758 274.3012 0130534  56.0068 305.3365 14.90975407113797
CAS-2T & KS-1Q          
1 41847U 16066G   26169.76436007  .00001345  00000+0  19556-3 0  9991
2 41847  98.3822 245.4827 0342837 124.7096 238.6899 14.44698862505025
RADFXSAT (FOX-1B)       
1 43017U 17073E   26168.60486874  .00005679  00000+0  24962-3 0  9991
2 43017  97.4696  35.8108 0149538 327.7970  31.4193 15.12722439465459
DIWATA-2B               
1 43678U 18084H   26169.83706674  .00002190  00000+0  17900-3 0  9995
2 43678  98.1180   6.1167 0012604 164.7913 195.3691 15.00459356416465
ES'HAIL 2               
1 43700U 18090A   26169.85065832  .00000138  00000+0  00000+0 0  9993
2 43700   0.0147  33.9705 0001717  90.4827 114.6450  1.00271603 27696
FOX-1CLIFF (AO-95)      
1 43770U 18099N   26169.71623000  .00009199  00000+0  35232-3 0  9996
2 43770  97.4376 229.9567 0007800 352.1170   7.9945 15.26738292413459
ITASAT                  
1 43786U 18099AE  26169.86608692  .00004904  00000+0  23668-3 0  9998
2 43786  97.4023 221.3444 0011915 354.4403   5.6697 15.19074209413161
JY1SAT (JO-97)          
1 43803U 18099AX  26169.72688060  .00013287  00000+0  40994-3 0  9995
2 43803  97.4126 232.5664 0004451 255.1384 104.9366 15.33692611413867
UWE-4                   
1 43880U 18111E   26169.76835926  .00027476  00000+0  55973-3 0  9992
2 43880  97.5851  98.2321 0005260 335.4333  24.6665 15.46206755411020
TIANYAN 01              
1 44881U 19093C   26169.86219211 -.00000002  00000+0  58455-5 0  9995
2 44881  97.7532 242.0535 0015070  81.7877 278.5047 14.86519282351662
RS-44 & BREEZE-KM R/B   
1 44909U 19096E   26169.72518458  .00000008  00000+0 -19365-4 0  9991
2 44909  82.5220 338.6827 0218230 140.5822 221.1390 12.79748853302548
SALSAT                  
1 46495U 20068K   26169.45370448  .00006100  00000+0  21401-3 0  9990
2 46495  97.8850 172.5954 0007987 302.8690  57.1780 15.29814902315557
XW-3 (CAS-9)            
1 50466U 21131B   26169.85950961  .00000357  00000+0  12393-3 0  9991
2 50466  98.4986 262.2401 0005388  93.0611 267.1195 14.41358642235355
GREENCUBE (IO-117)      
1 53109U 22080E   26169.42938941 -.00000003  00000+0  00000+0 0  9996
2 53109  70.1442 297.8130 0008904 289.4279  70.5418  6.42583246 92141
UMKA 1 (RS40S)          
1 57172U 23091G   26169.80460954  .00004538  00000+0  20833-3 0  9995
2 57172  97.5046 228.4957 0014282 112.6040 247.6707 15.20833066164258
CUBESX-HSE 3 (RS42S)    
1 57178U 23091N   26169.80756742  .00010391  00000+0  34606-3 0  9991
2 57178  97.5087 235.4152 0012005  89.9269 270.3348 15.31248189164672
MONITOR-3 (RS58S)       
1 57180U 23091Q   26169.83563440  .00008087  00000+0  29927-3 0  9997
2 57180  97.5077 233.2937 0013086  95.7214 264.5518 15.27868513164540
MONITOR-4 (RS57S)       
1 57182U 23091S   26169.81459938  .00008428  00000+0  31095-3 0  9991
2 57182  97.5073 233.2441 0013071  96.1686 264.1042 15.27954436164548
MONITOR-2 (RS39S)       
1 57184U 23091U   26169.82789370  .00003963  00000+0  19275-3 0  9995
2 57184  97.5068 228.1003 0012768 106.1632 254.1008 15.18923152164201
SVYATOBOR 1 (RS60S)     
1 57187U 23091X   26169.82909054  .00006733  00000+0  25933-3 0  9997
2 57187  97.5086 233.6552 0010842  89.6350 270.6130 15.26637750164560
VIZARD-METEO (RS38S)    
1 57189U 23091Z   26169.84136795  .00012276  00000+0  35131-3 0  9995
2 57189  97.5088 239.3596 0008161  72.8457 287.3680 15.36068617164946
POLYTECH-UNIVERSE 3 (R*)
1 57191U 23091AB  26169.85487794  .00004079  00000+0  19683-3 0  9993
2 57191  97.5044 227.6317 0016941 121.4548 238.8345 15.19125707164202
UTMN 2 (RS27S)          
1 57203U 23091AP  26169.82426919  .00009964  00000+0  32374-3 0  9996
2 57203  97.5083 237.0682 0009170  78.8611 281.3661 15.32084540164793
